[{"OBJECT_NAME":"STARLINK-4043","OBJECT_ID":"2022-062G","EPOCH":"2026-03-09T07:41:35.684160","MEAN_MOTION":15.0883873,"ECCENTRICITY":0.00013473,"INCLINATION":53.2193,"RA_OF_ASC_NODE":36.0934,"ARG_OF_PERICENTER":102.9136,"MEAN_ANOMALY":257.2007,"EPHEMERIS_TYPE":0,"CLASSIFICATION_TYPE":"U","NORAD_CAT_ID":52836,"ELEMENT_SET_NO":999,"REV_AT_EPOCH":20572,"BSTAR":7.4020766e-5,"MEAN_MOTION_DOT":8.9e-6,"MEAN_MOTION_DDOT":0},{"OBJECT_NAME":"ATLAS 5 CENTAUR R\/B","OBJECT_ID":"2013-072P","EPOCH":"2026-03-09T21:36:10.628064","MEAN_MOTION":14.96443736,"ECCENTRICITY":0.0189428,"INCLINATION":120.4328,"RA_OF_ASC_NODE":111.5185,"ARG_OF_PERICENTER":160.796,"MEAN_ANOMALY":200.0359,"EPHEMERIS_TYPE":0,"CLASSIFICATION_TYPE":"U","NORAD_CAT_ID":39475,"ELEMENT_SET_NO":999,"REV_AT_EPOCH":9970,"BSTAR":0.00054929733,"MEAN_MOTION_DOT":8.701e-5,"MEAN_MOTION_DDOT":0}]
